{"type": "FeatureCollection", "features": [ {"type": "Feature", "properties": {"norad_id": 67020, "name": "STARLINK-36172", "group": "last-30-days", "lat": 69.84006523165993, "lon": 20.78876370760638, "alt_km": 346.8145710461313, "timestamp": "2025-12-26T14:28:46.398503+00:00", "meta": {"OBJECT_NAME": "STARLINK-36172", "OBJECT_ID": "2025-293T", "EPOCH": "2025-12-26T06:00:02.999808", "MEAN_MOTION": 15.73747431, "ECCENTRICITY": 0.00037187, "INCLINATION": 69.9949, "RA_OF_ASC_NODE": 284.7083, "ARG_OF_PERICENTER": 270.0681, "MEAN_ANOMALY": 342.2718, "EPHEMERIS_TYPE": 0, "CLASSIFICATION_TYPE": "U", "NORAD_CAT_ID": 67020, "ELEMENT_SET_NO": 999, "REV_AT_EPOCH": 239, "BSTAR": -0.012965183, "MEAN_MOTION_DOT": -0.01628984, "MEAN_MOTION_DDOT": 0}, "tle": {"line1": "1 67020U 25293T   25360.25003472 -.01628984  00000+0 -12965-1 0  9998", "line2": "2 67020  69.9949 284.7083 0003718 270.0681 342.2718 15.73747431  2391"}}, "geometry": {"type": "Point", "coordinates": [20.78876370760638, 69.84006523165993]}}, {"type": "Feature", "properties": {"norad_id": 67021, "name": "STARLINK-36184", "group": "last-30-days", "lat": 69.43725606039544, "lon": 27.48228770736439, "alt_km": 346.80424120314456, "timestamp": "2025-12-26T14:28:46.398513+00:00", "meta": {"OBJECT_NAME": "STARLINK-36184", "OBJECT_ID": "2025-293U", "EPOCH": "2025-12-26T06:00:02.999808", "MEAN_MOTION": 15.73722459, "ECCENTRICITY": 0.0003594, "INCLINATION": 69.9945, "RA_OF_ASC_NODE": 284.7054, "ARG_OF_PERICENTER": 267.9682, "MEAN_ANOMALY": 346.7629, "EPHEMERIS_TYPE": 0, "CLASSIFICATION_TYPE": "U", "NORAD_CAT_ID": 67021, "ELEMENT_SET_NO": 999, "REV_AT_EPOCH": 239, "BSTAR": -0.01293868, "MEAN_MOTION_DOT": -0.01624349, "MEAN_MOTION_DDOT": 0}, "tle": {"line1": "1 67021U 25293U   25360.25003472 -.01624349  00000+0 -12939-1 0  9991", "line2": "2 67021  69.9945 284.7054 0003594 267.9682 346.7629 15.73722459  2397"}}, "geometry": {"type": "Point", "coordinates": [27.48228770736439, 69.43725606039544]}}, {"type": "Feature", "properties": {"norad_id": 67022, "name": "STARLINK-36209", "group": "last-30-days", "lat": 68.70915861857294, "lon": 34.48765328321605, "alt_km": 347.0010428165442, "timestamp": "2025-12-26T14:28:46.398528+00:00", "meta": {"OBJECT_NAME": "STARLINK-36209", "OBJECT_ID": "2025-293V", "EPOCH": "2025-12-26T06:00:02.999808", "MEAN_MOTION": 15.73688159, "ECCENTRICITY": 0.00036683, "INCLINATION": 69.9946, "RA_OF_ASC_NODE": 284.7024, "ARG_OF_PERICENTER": 268.259, "MEAN_ANOMALY": 349.1182, "EPHEMERIS_TYPE": 0, "CLASSIFICATION_TYPE": "U", "NORAD_CAT_ID": 67022, "ELEMENT_SET_NO": 999, "REV_AT_EPOCH": 239, "BSTAR": -0.012964418, "MEAN_MOTION_DOT": -0.0162514, "MEAN_MOTION_DDOT": 0}, "tle": {"line1": "1 67022U 25293V   25360.25003472 -.01625140  00000+0 -12964-1 0  9990", "line2": "2 67022  69.9946 284.7024 0003668 268.2590 349.1182 15.73688159  2399"}}, "geometry": {"type": "Point", "coordinates": [34.48765328321605, 68.70915861857294]}}, {"type": "Feature", "properties": {"norad_id": 67023, "name": "STARLINK-36191", "group": "last-30-days", "lat": 67.8389116396714, "lon": 40.253279345264396, "alt_km": 347.1387766618791, "timestamp": "2025-12-26T14:28:46.398540+00:00", "meta": {"OBJECT_NAME": "STARLINK-36191", "OBJECT_ID": "2025-293W", "EPOCH": "2025-12-26T06:00:02.999808", "MEAN_MOTION": 15.73669585, "ECCENTRICITY": 0.00037008, "INCLINATION": 69.9946, "RA_OF_ASC_NODE": 284.699, "ARG_OF_PERICENTER": 268.5491, "MEAN_ANOMALY": 351.1545, "EPHEMERIS_TYPE": 0, "CLASSIFICATION_TYPE": "U", "NORAD_CAT_ID": 67023, "ELEMENT_SET_NO": 999, "REV_AT_EPOCH": 228, "BSTAR": -0.012985887, "MEAN_MOTION_DOT": -0.016264, "MEAN_MOTION_DDOT": 0}, "tle": {"line1": "1 67023U 25293W   25360.25003472 -.01626400  00000+0 -12986-1 0  9995", "line2": "2 67023  69.9946 284.6990 0003700 268.5491 351.1545 15.73669585  2287"}}, "geometry": {"type": "Point", "coordinates": [40.253279345264396, 67.8389116396714]}}, {"type": "Feature", "properties": {"norad_id": 67024, "name": "STARLINK-36192", "group": "last-30-days", "lat": 66.69246824706855, "lon": 45.955063225958426, "alt_km": 347.2657204739353, "timestamp": "2025-12-26T14:28:46.398551+00:00", "meta": {"OBJECT_NAME": "STARLINK-36192", "OBJECT_ID": "2025-293X", "EPOCH": "2025-12-26T06:00:02.999808", "MEAN_MOTION": 15.73640784, "ECCENTRICITY": 0.00036581, "INCLINATION": 69.995, "RA_OF_ASC_NODE": 284.6963, "ARG_OF_PERICENTER": 268.0245, "MEAN_ANOMALY": 354.1964, "EPHEMERIS_TYPE": 0, "CLASSIFICATION_TYPE": "U", "NORAD_CAT_ID": 67024, "ELEMENT_SET_NO": 999, "REV_AT_EPOCH": 239, "BSTAR": -0.012997517, "MEAN_MOTION_DOT": -0.01625855, "MEAN_MOTION_DDOT": 0}, "tle": {"line1": "1 67024U 25293X   25360.25003472 -.01625855  00000+0 -12998-1 0  9992", "line2": "2 67024  69.9950 284.6963 0003658 268.0245 354.1964 15.73640784  2397"}}, "geometry": {"type": "Point", "coordinates": [45.955063225958426, 66.69246824706855]}}, {"type": "Feature", "properties": {"norad_id": 67025, "name": "STARLINK-36178", "group": "last-30-days", "lat": 65.52314610794029, "lon": 50.53636130463998, "alt_km": 347.38441015202625, "timestamp": "2025-12-26T14:28:46.398563+00:00", "meta": {"OBJECT_NAME": "STARLINK-36178", "OBJECT_ID": "2025-293Y", "EPOCH": "2025-12-26T06:00:02.999808", "MEAN_MOTION": 15.73628313, "ECCENTRICITY": 0.00036409, "INCLINATION": 69.9951, "RA_OF_ASC_NODE": 284.6937, "ARG_OF_PERICENTER": 268.3315, "MEAN_ANOMALY": 356.097, "EPHEMERIS_TYPE": 0, "CLASSIFICATION_TYPE": "U", "NORAD_CAT_ID": 67025, "ELEMENT_SET_NO": 999, "REV_AT_EPOCH": 239, "BSTAR": -0.013026033, "MEAN_MOTION_DOT": -0.01628232, "MEAN_MOTION_DDOT": 0}, "tle": {"line1": "1 67025U 25293Y   25360.25003472 -.01628232  00000+0 -13026-1 0  9998", "line2": "2 67025  69.9951 284.6937 0003640 268.3315 356.0970 15.73628313  2394"}}, "geometry": {"type": "Point", "coordinates": [50.53636130463998, 65.52314610794029]}}, {"type": "Feature", "properties": {"norad_id": 67026, "name": "STARLINK-36176", "group": "last-30-days", "lat": 62.65327992410781, "lon": 58.90470947085395, "alt_km": 347.6876479595212, "timestamp": "2025-12-26T14:28:46.398573+00:00", "meta": {"OBJECT_NAME": "STARLINK-36176", "OBJECT_ID": "2025-293Z", "EPOCH": "2025-12-26T06:00:02.999808", "MEAN_MOTION": 15.73583886, "ECCENTRICITY": 0.00035225, "INCLINATION": 69.9949, "RA_OF_ASC_NODE": 284.6896, "ARG_OF_PERICENTER": 271.1785, "MEAN_ANOMALY": 357.9382, "EPHEMERIS_TYPE": 0, "CLASSIFICATION_TYPE": "U", "NORAD_CAT_ID": 67026, "ELEMENT_SET_NO": 999, "REV_AT_EPOCH": 239, "BSTAR": -0.012982709, "MEAN_MOTION_DOT": -0.01620537, "MEAN_MOTION_DDOT": 0}, "tle": {"line1": "1 67026U 25293Z   25360.25003472 -.01620537  00000+0 -12983-1 0  9990", "line2": "2 67026  69.9949 284.6896 0003522 271.1785 357.9382 15.73583886  2390"}}, "geometry": {"type": "Point", "coordinates": [58.90470947085395, 62.65327992410781]}}, {"type": "Feature", "properties": {"norad_id": 67027, "name": "STARLINK-36171", "group": "last-30-days", "lat": 64.01835576909245, "lon": 55.30720069689893, "alt_km": 347.5752155234559, "timestamp": "2025-12-26T14:28:46.398584+00:00", "meta": {"OBJECT_NAME": "STARLINK-36171", "OBJECT_ID": "2025-293AA", "EPOCH": "2025-12-26T06:00:02.999808", "MEAN_MOTION": 15.73597306, "ECCENTRICITY": 0.00036239, "INCLINATION": 69.9943, "RA_OF_ASC_NODE": 284.6904, "ARG_OF_PERICENTER": 268.3219, "MEAN_ANOMALY": 358.672, "EPHEMERIS_TYPE": 0, "CLASSIFICATION_TYPE": "U", "NORAD_CAT_ID": 67027, "ELEMENT_SET_NO": 999, "REV_AT_EPOCH": 239, "BSTAR": -0.013030845, "MEAN_MOTION_DOT": -0.01626812, "MEAN_MOTION_DDOT": 0}, "tle": {"line1": "1 67027U 25293AA  25360.25003472 -.01626812  00000+0 -13031-1 0  9998", "line2": "2 67027  69.9943 284.6904 0003623 268.3219 358.6720 15.73597306  2393"}}, "geometry": {"type": "Point", "coordinates": [55.30720069689893, 64.01835576909245]}}, {"type": "Feature", "properties": {"norad_id": 67028, "name": "STARLINK-36132", "group": "last-30-days", "lat": 59.35834244191875, "lon": 65.73083146559904, "alt_km": 348.2856821640198, "timestamp": "2025-12-26T14:28:46.398594+00:00", "meta": {"OBJECT_NAME": "STARLINK-36132", "OBJECT_ID": "2025-293AB", "EPOCH": "2025-12-26T06:00:02.999808", "MEAN_MOTION": 15.7354903, "ECCENTRICITY": 0.0003813, "INCLINATION": 69.9951, "RA_OF_ASC_NODE": 284.6824, "ARG_OF_PERICENTER": 270.4065, "MEAN_ANOMALY": 3.4245, "EPHEMERIS_TYPE": 0, "CLASSIFICATION_TYPE": "U", "NORAD_CAT_ID": 67028, "ELEMENT_SET_NO": 999, "REV_AT_EPOCH": 239, "BSTAR": -0.013101848, "MEAN_MOTION_DOT": -0.01631829, "MEAN_MOTION_DDOT": 0}, "tle": {"line1": "1 67028U 25293AB  25360.25003472 -.01631829  00000+0 -13102-1 0  9992", "line2": "2 67028  69.9951 284.6824 0003813 270.4065   3.4245 15.73549030  2396"}}, "geometry": {"type": "Point", "coordinates": [65.73083146559904, 59.35834244191875]}}, {"type": "Feature", "properties": {"norad_id": 67029, "name": "STARLINK-36190", "group": "last-30-days", "lat": 61.15778517767909, "lon": 62.27025419962612, "alt_km": 347.93513525822436, "timestamp": "2025-12-26T14:28:46.398605+00:00", "meta": {"OBJECT_NAME": "STARLINK-36190", "OBJECT_ID": "2025-293AC", "EPOCH": "2025-12-26T06:00:02.999808", "MEAN_MOTION": 15.73574505, "ECCENTRICITY": 0.00037196, "INCLINATION": 69.9953, "RA_OF_ASC_NODE": 284.6863, "ARG_OF_PERICENTER": 267.893, "MEAN_ANOMALY": 3.4198, "EPHEMERIS_TYPE": 0, "CLASSIFICATION_TYPE": "U", "NORAD_CAT_ID": 67029, "ELEMENT_SET_NO": 999, "REV_AT_EPOCH": 239, "BSTAR": -0.013051074, "MEAN_MOTION_DOT": -0.01627713, "MEAN_MOTION_DDOT": 0}, "tle": {"line1": "1 67029U 25293AC  25360.25003472 -.01627713  00000+0 -13051-1 0  9993", "line2": "2 67029  69.9953 284.6863 0003719 267.8930   3.4198 15.73574505  2390"}}, "geometry": {"type": "Point", "coordinates": [62.27025419962612, 61.15778517767909]}}]}